<?xml version="1.0" encoding="UTF-8"?>
<kml xmlns="http://www.opengis.net/kml/2.2">
  <Document>
    <name>Unique Spark Projects</name>
    <description>Legacy footprint of Unique Spark Infra across Varanasi.</description>
    
    <!-- Residential -->
    <Placemark>
      <name>Chandraprabha Heights</name>
      <description>Premium high-rise residential apartments offering panoramic city views.</description>
      <ExtendedData>
        <Data name="category"><value>Residential</value></Data>
        <Data name="year"><value>2018</value></Data>
      </ExtendedData>
      <Point>
        <coordinates>82.9739,25.3176,0</coordinates>
      </Point>
    </Placemark>

    <Placemark>
      <name>Chandraprabha Residency</name>
      <description>Luxury residential complex in the developing Shivpur corridor.</description>
      <ExtendedData>
        <Data name="category"><value>Residential</value></Data>
        <Data name="year"><value>2016</value></Data>
      </ExtendedData>
      <Point>
        <coordinates>82.9512,25.3610,0</coordinates>
      </Point>
    </Placemark>

    <Placemark>
      <name>Ganga View Villas</name>
      <description>Bespoke riverside villas with direct private access to Assi Ghat.</description>
      <ExtendedData>
        <Data name="category"><value>Residential</value></Data>
        <Data name="year"><value>2014</value></Data>
      </ExtendedData>
      <Point>
        <coordinates>83.0062,25.2897,0</coordinates>
      </Point>
    </Placemark>

    <Placemark>
      <name>Chandraprabha Green Valley</name>
      <description>Expansive residential township integrated with modern green tech.</description>
      <ExtendedData>
        <Data name="category"><value>Residential</value></Data>
        <Data name="year"><value>2015</value></Data>
      </ExtendedData>
      <Point>
        <coordinates>82.9580,25.2810,0</coordinates>
      </Point>
    </Placemark>

    <Placemark>
      <name>Unique Enclave</name>
      <description>Foundational luxury villa project near Sarnath circuit.</description>
      <ExtendedData>
        <Data name="category"><value>Residential</value></Data>
        <Data name="year"><value>2012</value></Data>
      </ExtendedData>
      <Point>
        <coordinates>83.0234,25.3745,0</coordinates>
      </Point>
    </Placemark>
    
    <!-- Commercial -->
    <Placemark>
      <name>Spark Corporate Park</name>
      <description>Varanasi's premier IT and corporate destination with A-grade offices.</description>
      <ExtendedData>
        <Data name="category"><value>Commercial</value></Data>
        <Data name="year"><value>2021</value></Data>
      </ExtendedData>
      <Point>
        <coordinates>82.9900,25.3200,0</coordinates>
      </Point>
    </Placemark>

    <Placemark>
      <name>The Landmark Plaza</name>
      <description>High-visibility retail and business tower in central Godowlia.</description>
      <ExtendedData>
        <Data name="category"><value>Commercial</value></Data>
        <Data name="year"><value>2017</value></Data>
      </ExtendedData>
      <Point>
        <coordinates>83.0075,25.3105,0</coordinates>
      </Point>
    </Placemark>

    <Placemark>
      <name>Zenith Office Suites</name>
      <description>Modern flexible workspace for creative startups and professionals.</description>
      <ExtendedData>
        <Data name="category"><value>Commercial</value></Data>
        <Data name="year"><value>2020</value></Data>
      </ExtendedData>
      <Point>
        <coordinates>82.9972,25.2754,0</coordinates>
      </Point>
    </Placemark>

    <Placemark>
      <name>Unique Business Hub</name>
      <description>Smart commercial development near the upcoming Outer Ring Road.</description>
      <ExtendedData>
        <Data name="category"><value>Commercial</value></Data>
        <Data name="year"><value>2019</value></Data>
      </ExtendedData>
      <Point>
        <coordinates>83.0450,25.3620,0</coordinates>
      </Point>
    </Placemark>

    <!-- Interiors -->
    <Placemark>
      <name>The Kashi Estate Villa</name>
      <description>Award-winning turnkey interior design for a sprawling heritage estate.</description>
      <ExtendedData>
        <Data name="category"><value>Interiors</value></Data>
        <Data name="year"><value>2023</value></Data>
      </ExtendedData>
      <Point>
        <coordinates>82.9500,25.2900,0</coordinates>
      </Point>
    </Placemark>

    <Placemark>
      <name>Heritage Boutique Hotel</name>
      <description>Adaptive reuse and luxury interiors for a Ganga-facing heritage haveli.</description>
      <ExtendedData>
        <Data name="category"><value>Interiors</value></Data>
        <Data name="year"><value>2021</value></Data>
      </ExtendedData>
      <Point>
        <coordinates>83.0125,25.3080,0</coordinates>
      </Point>
    </Placemark>

    <Placemark>
      <name>QalaGriha Penthouse</name>
      <description>Ultra-luxury penthouse design featuring custom Italian-modern aesthetics.</description>
      <ExtendedData>
        <Data name="category"><value>Interiors</value></Data>
        <Data name="year"><value>2022</value></Data>
      </ExtendedData>
      <Point>
        <coordinates>82.9815,25.3140,0</coordinates>
      </Point>
    </Placemark>

    <!-- Investment -->
    <Placemark>
      <name>Smart Township Phase 1</name>
      <description>High-yield 50-acre mixed-use development with global infrastructure.</description>
      <ExtendedData>
        <Data name="category"><value>Investment</value></Data>
        <Data name="year"><value>2024</value></Data>
      </ExtendedData>
      <Point>
        <coordinates>83.0100,25.3500,0</coordinates>
      </Point>
    </Placemark>

    <Placemark>
      <name>Varanasi Tech Park</name>
      <description>Future-ready industrial and tech corridor for institutional investors.</description>
      <ExtendedData>
        <Data name="category"><value>Investment</value></Data>
        <Data name="year"><value>2023</value></Data>
      </ExtendedData>
      <Point>
        <coordinates>83.0330,25.3412,0</coordinates>
      </Point>
    </Placemark>

    <Placemark>
      <name>US Industrial Corridor</name>
      <description>Strategic logistics and manufacturing park near Ramnagar industrial hub.</description>
      <ExtendedData>
        <Data name="category"><value>Investment</value></Data>
        <Data name="year"><value>2025</value></Data>
      </ExtendedData>
      <Point>
        <coordinates>83.0250,25.2580,0</coordinates>
      </Point>
    </Placemark>

  </Document>
</kml>
